<?xml version="1.0" encoding="UTF-8"?>
<ndm xmlns:xsi="http://www.w3.org/2001/XMLSchema-instance" xsi:noNamespaceSchemaLocation="https://sanaregistry.org/r/ndmxml_unqualified/ndmxml-2.0.0-master-2.0.xsd">
<omm id="CCSDS_OMM_VERS" version="2.0">
<header><CREATION_DATE/><ORIGINATOR/></header><body><segment><metadata><OBJECT_NAME>IRIDIUM 36</OBJECT_NAME><OBJECT_ID>1997-056C</OBJECT_ID><CENTER_NAME>EARTH</CENTER_NAME><REF_FRAME>TEME</REF_FRAME><TIME_SYSTEM>UTC</TIME_SYSTEM><MEAN_ELEMENT_THEORY>SGP4</MEAN_ELEMENT_THEORY></metadata><data><meanElements><EPOCH>2025-01-22T12:34:29.179776</EPOCH><MEAN_MOTION>14.37366834</MEAN_MOTION><ECCENTRICITY>.0002144</ECCENTRICITY><INCLINATION>86.3942</INCLINATION><RA_OF_ASC_NODE>234.1408</RA_OF_ASC_NODE><ARG_OF_PERICENTER>92.7175</ARG_OF_PERICENTER><MEAN_ANOMALY>267.4268</MEAN_ANOMALY></meanElements><tleParameters><EPHEMERIS_TYPE>0</EPHEMERIS_TYPE><CLASSIFICATION_TYPE>U</CLASSIFICATION_TYPE><NORAD_CAT_ID>24967</NORAD_CAT_ID><ELEMENT_SET_NO>999</ELEMENT_SET_NO><REV_AT_EPOCH>43129</REV_AT_EPOCH><BSTAR>.326E-3</BSTAR><MEAN_MOTION_DOT>.992E-5</MEAN_MOTION_DOT><MEAN_MOTION_DDOT>0</MEAN_MOTION_DDOT></tleParameters></data></segment></body></omm>
<omm id="CCSDS_OMM_VERS" version="2.0">
<header><CREATION_DATE/><ORIGINATOR/></header><body><segment><metadata><OBJECT_NAME>IRIDIUM 39</OBJECT_NAME><OBJECT_ID>1997-069D</OBJECT_ID><CENTER_NAME>EARTH</CENTER_NAME><REF_FRAME>TEME</REF_FRAME><TIME_SYSTEM>UTC</TIME_SYSTEM><MEAN_ELEMENT_THEORY>SGP4</MEAN_ELEMENT_THEORY></metadata><data><meanElements><EPOCH>2025-01-22T05:11:46.717152</EPOCH><MEAN_MOTION>14.48845572</MEAN_MOTION><ECCENTRICITY>.0020113</ECCENTRICITY><INCLINATION>86.3896</INCLINATION><RA_OF_ASC_NODE>273.7254</RA_OF_ASC_NODE><ARG_OF_PERICENTER>75.3396</ARG_OF_PERICENTER><MEAN_ANOMALY>285.0036</MEAN_ANOMALY></meanElements><tleParameters><EPHEMERIS_TYPE>0</EPHEMERIS_TYPE><CLASSIFICATION_TYPE>U</CLASSIFICATION_TYPE><NORAD_CAT_ID>25042</NORAD_CAT_ID><ELEMENT_SET_NO>999</ELEMENT_SET_NO><REV_AT_EPOCH>42782</REV_AT_EPOCH><BSTAR>.39801E-3</BSTAR><MEAN_MOTION_DOT>.1528E-4</MEAN_MOTION_DOT><MEAN_MOTION_DDOT>0</MEAN_MOTION_DDOT></tleParameters></data></segment></body></omm>
<omm id="CCSDS_OMM_VERS" version="2.0">
<header><CREATION_DATE/><ORIGINATOR/></header><body><segment><metadata><OBJECT_NAME>IRIDIUM 38</OBJECT_NAME><OBJECT_ID>1997-069E</OBJECT_ID><CENTER_NAME>EARTH</CENTER_NAME><REF_FRAME>TEME</REF_FRAME><TIME_SYSTEM>UTC</TIME_SYSTEM><MEAN_ELEMENT_THEORY>SGP4</MEAN_ELEMENT_THEORY></metadata><data><meanElements><EPOCH>2025-01-23T03:42:38.664288</EPOCH><MEAN_MOTION>14.37875888</MEAN_MOTION><ECCENTRICITY>.0001688</ECCENTRICITY><INCLINATION>86.3961</INCLINATION><RA_OF_ASC_NODE>294.2019</RA_OF_ASC_NODE><ARG_OF_PERICENTER>141.1311</ARG_OF_PERICENTER><MEAN_ANOMALY>219.0008</MEAN_ANOMALY></meanElements><tleParameters><EPHEMERIS_TYPE>0</EPHEMERIS_TYPE><CLASSIFICATION_TYPE>U</CLASSIFICATION_TYPE><NORAD_CAT_ID>25043</NORAD_CAT_ID><ELEMENT_SET_NO>999</ELEMENT_SET_NO><REV_AT_EPOCH>42537</REV_AT_EPOCH><BSTAR>.35541E-3</BSTAR><MEAN_MOTION_DOT>.1091E-4</MEAN_MOTION_DOT><MEAN_MOTION_DDOT>0</MEAN_MOTION_DDOT></tleParameters></data></segment></body></omm>
<omm id="CCSDS_OMM_VERS" version="2.0">
<header><CREATION_DATE/><ORIGINATOR/></header><body><segment><metadata><OBJECT_NAME>IRIDIUM 42</OBJECT_NAME><OBJECT_ID>1997-077A</OBJECT_ID><CENTER_NAME>EARTH</CENTER_NAME><REF_FRAME>TEME</REF_FRAME><TIME_SYSTEM>UTC</TIME_SYSTEM><MEAN_ELEMENT_THEORY>SGP4</MEAN_ELEMENT_THEORY></metadata><data><meanElements><EPOCH>2025-01-22T05:12:43.563168</EPOCH><MEAN_MOTION>14.36129583</MEAN_MOTION><ECCENTRICITY>.0001575</ECCENTRICITY><INCLINATION>86.3972</INCLINATION><RA_OF_ASC_NODE>300.5876</RA_OF_ASC_NODE><ARG_OF_PERICENTER>97.2668</ARG_OF_PERICENTER><MEAN_ANOMALY>262.8708</MEAN_ANOMALY></meanElements><tleParameters><EPHEMERIS_TYPE>0</EPHEMERIS_TYPE><CLASSIFICATION_TYPE>U</CLASSIFICATION_TYPE><NORAD_CAT_ID>25077</NORAD_CAT_ID><ELEMENT_SET_NO>999</ELEMENT_SET_NO><REV_AT_EPOCH>42024</REV_AT_EPOCH><BSTAR>.38461E-3</BSTAR><MEAN_MOTION_DOT>.1139E-4</MEAN_MOTION_DOT><MEAN_MOTION_DDOT>0</MEAN_MOTION_DDOT></tleParameters></data></segment></body></omm>
<omm id="CCSDS_OMM_VERS" version="2.0">
<header><CREATION_DATE/><ORIGINATOR/></header><body><segment><metadata><OBJECT_NAME>IRIDIUM 44</OBJECT_NAME><OBJECT_ID>1997-077B</OBJECT_ID><CENTER_NAME>EARTH</CENTER_NAME><REF_FRAME>TEME</REF_FRAME><TIME_SYSTEM>UTC</TIME_SYSTEM><MEAN_ELEMENT_THEORY>SGP4</MEAN_ELEMENT_THEORY></metadata><data><meanElements><EPOCH>2025-01-23T02:53:56.028768</EPOCH><MEAN_MOTION>14.39999454</MEAN_MOTION><ECCENTRICITY>.0003424</ECCENTRICITY><INCLINATION>86.3947</INCLINATION><RA_OF_ASC_NODE>282.5075</RA_OF_ASC_NODE><ARG_OF_PERICENTER>112.5870</ARG_OF_PERICENTER><MEAN_ANOMALY>247.5692</MEAN_ANOMALY></meanElements><tleParameters><EPHEMERIS_TYPE>0</EPHEMERIS_TYPE><CLASSIFICATION_TYPE>U</CLASSIFICATION_TYPE><NORAD_CAT_ID>25078</NORAD_CAT_ID><ELEMENT_SET_NO>999</ELEMENT_SET_NO><REV_AT_EPOCH>42285</REV_AT_EPOCH><BSTAR>.31871E-3</BSTAR><MEAN_MOTION_DOT>.1023E-4</MEAN_MOTION_DOT><MEAN_MOTION_DDOT>0</MEAN_MOTION_DDOT></tleParameters></data></segment></body></omm>
<omm id="CCSDS_OMM_VERS" version="2.0">
<header><CREATION_DATE/><ORIGINATOR/></header><body><segment><metadata><OBJECT_NAME>IRIDIUM 45</OBJECT_NAME><OBJECT_ID>1997-082A</OBJECT_ID><CENTER_NAME>EARTH</CENTER_NAME><REF_FRAME>TEME</REF_FRAME><TIME_SYSTEM>UTC</TIME_SYSTEM><MEAN_ELEMENT_THEORY>SGP4</MEAN_ELEMENT_THEORY></metadata><data><meanElements><EPOCH>2025-01-22T07:59:38.996736</EPOCH><MEAN_MOTION>15.15266328</MEAN_MOTION><ECCENTRICITY>.0133355</ECCENTRICITY><INCLINATION>86.3627</INCLINATION><RA_OF_ASC_NODE>118.3521</RA_OF_ASC_NODE><ARG_OF_PERICENTER>155.1266</ARG_OF_PERICENTER><MEAN_ANOMALY>205.6484</MEAN_ANOMALY></meanElements><tleParameters><EPHEMERIS_TYPE>0</EPHEMERIS_TYPE><CLASSIFICATION_TYPE>U</CLASSIFICATION_TYPE><NORAD_CAT_ID>25104</NORAD_CAT_ID><ELEMENT_SET_NO>999</ELEMENT_SET_NO><REV_AT_EPOCH>42990</REV_AT_EPOCH><BSTAR>.14683E-2</BSTAR><MEAN_MOTION_DOT>.34759E-3</MEAN_MOTION_DOT><MEAN_MOTION_DDOT>0</MEAN_MOTION_DDOT></tleParameters></data></segment></body></omm>
<omm id="CCSDS_OMM_VERS" version="2.0">
<header><CREATION_DATE/><ORIGINATOR/></header><body><segment><metadata><OBJECT_NAME>IRIDIUM 24</OBJECT_NAME><OBJECT_ID>1997-082B</OBJECT_ID><CENTER_NAME>EARTH</CENTER_NAME><REF_FRAME>TEME</REF_FRAME><TIME_SYSTEM>UTC</TIME_SYSTEM><MEAN_ELEMENT_THEORY>SGP4</MEAN_ELEMENT_THEORY></metadata><data><meanElements><EPOCH>2025-01-22T00:43:47.897472</EPOCH><MEAN_MOTION>14.41832382</MEAN_MOTION><ECCENTRICITY>.0011009</ECCENTRICITY><INCLINATION>86.3953</INCLINATION><RA_OF_ASC_NODE>142.2779</RA_OF_ASC_NODE><ARG_OF_PERICENTER>191.1807</ARG_OF_PERICENTER><MEAN_ANOMALY>168.9150</MEAN_ANOMALY></meanElements><tleParameters><EPHEMERIS_TYPE>0</EPHEMERIS_TYPE><CLASSIFICATION_TYPE>U</CLASSIFICATION_TYPE><NORAD_CAT_ID>25105</NORAD_CAT_ID><ELEMENT_SET_NO>999</ELEMENT_SET_NO><REV_AT_EPOCH>42215</REV_AT_EPOCH><BSTAR>.42868E-3</BSTAR><MEAN_MOTION_DOT>.1421E-4</MEAN_MOTION_DOT><MEAN_MOTION_DDOT>0</MEAN_MOTION_DDOT></tleParameters></data></segment></body></omm>
<omm id="CCSDS_OMM_VERS" version="2.0">
<header><CREATION_DATE/><ORIGINATOR/></header><body><segment><metadata><OBJECT_NAME>IRIDIUM 51</OBJECT_NAME><OBJECT_ID>1998-018A</OBJECT_ID><CENTER_NAME>EARTH</CENTER_NAME><REF_FRAME>TEME</REF_FRAME><TIME_SYSTEM>UTC</TIME_SYSTEM><MEAN_ELEMENT_THEORY>SGP4</MEAN_ELEMENT_THEORY></metadata><data><meanElements><EPOCH>2025-01-22T05:07:08.284512</EPOCH><MEAN_MOTION>15.27803041</MEAN_MOTION><ECCENTRICITY>.0110101</ECCENTRICITY><INCLINATION>86.3911</INCLINATION><RA_OF_ASC_NODE>127.4292</RA_OF_ASC_NODE><ARG_OF_PERICENTER>86.8286</ARG_OF_PERICENTER><MEAN_ANOMALY>274.5551</MEAN_ANOMALY></meanElements><tleParameters><EPHEMERIS_TYPE>0</EPHEMERIS_TYPE><CLASSIFICATION_TYPE>U</CLASSIFICATION_TYPE><NORAD_CAT_ID>25262</NORAD_CAT_ID><ELEMENT_SET_NO>999</ELEMENT_SET_NO><REV_AT_EPOCH>42465</REV_AT_EPOCH><BSTAR>.13329E-2</BSTAR><MEAN_MOTION_DOT>.43562E-3</MEAN_MOTION_DOT><MEAN_MOTION_DDOT>0</MEAN_MOTION_DDOT></tleParameters></data></segment></body></omm>

</ndm>
