IRIDIUM 36              
1 24967U 97056C   25022.52394884  .00000992  00000+0  32600-3 0  9992
2 24967  86.3942 234.1408 0002144  92.7175 267.4268 14.37366834431295
IRIDIUM 39              
1 25042U 97069D   25022.21651293  .00001528  00000+0  39801-3 0  9993
2 25042  86.3896 273.7254 0020113  75.3396 285.0036 14.48845572427820
IRIDIUM 38              
1 25043U 97069E   25023.15461417  .00001091  00000+0  35541-3 0  9997
2 25043  86.3961 294.2019 0001688 141.1311 219.0008 14.37875888425371
IRIDIUM 42              
1 25077U 97077A   25022.21717087  .00001139  00000+0  38461-3 0  9993
2 25077  86.3972 300.5876 0001575  97.2668 262.8708 14.36129583420240
IRIDIUM 44              
1 25078U 97077B   25023.12078737  .00001023  00000+0  31871-3 0  9997
2 25078  86.3947 282.5075 0003424 112.5870 247.5692 14.39999454422850
IRIDIUM 45              
1 25104U 97082A   25022.33309024  .00034759  00000+0  14683-2 0  9994
2 25104  86.3627 118.3521 0133355 155.1266 205.6484 15.15266328429905
IRIDIUM 24              
1 25105U 97082B   25022.03041548  .00001421  00000+0  42868-3 0  9993
2 25105  86.3953 142.2779 0011009 191.1807 168.9150 14.41832382422159
IRIDIUM 51              
1 25262U 98018A   25022.21329033  .00043562  00000+0  13329-2 0  9996
2 25262  86.3911 127.4292 0110101  86.8286 274.5551 15.27803041424657
